NORAD_CAT_ID,OBJECT_NAME,OBJECT_TYPE,EPOCH,MEAN_MOTION,ECCENTRICITY,INCLINATION,RA_OF_ASC_NODE,ARG_OF_PERICENTER,MEAN_ANOMALY,BSTAR,MEAN_MOTION_DOT,MEAN_MOTION_DDOT,TLE_LINE0,TLE_LINE1,TLE_LINE2,SEMIMAJOR_AXIS,PERIOD,APOGEE,PERIGEE,DECAYED
53845.0,STARLINK-4753,PAYLOAD,2023-06-11 13:23:38,15.08828834,9.98e-05,53.2161,112.8923,89.9951,270.1156,1.7047e-05,-1.6e-07,0.0,0 STARLINK-4753,1 53845U 22114AD  23162.55808008 -.00000016  00000-0  17047-4 0  9994,2 53845  53.2161 112.8923 0000998  89.9951 270.1156 15.08828834 41686,6917.915,95.438,540.47,539.089,0.0
53845.0,STARLINK-4753,PAYLOAD,2023-06-11 21:20:33,15.08836048,9.84e-05,53.2163,111.4051,89.1635,270.947,3.2789e-05,2.34e-06,0.0,0 STARLINK-4753,1 53845U 22114AD  23162.88927716  .00000234  00000-0  32789-4 0  9999,2 53845  53.2163 111.4051 0000984  89.1635 270.9470 15.08836048 41730,6917.892,95.438,540.438,539.077,0.0
53845.0,STARLINK-4753,PAYLOAD,2023-06-12 03:42:05,15.08843304,9.88e-05,53.2161,110.2165,90.1354,269.9752,9.4384e-05,1.215e-05,0.0,0 STARLINK-4753,1 53845U 22114AD  23163.15423146  .00001215  00000-0  94384-4 0  9997,2 53845  53.2161 110.2165 0000988  90.1354 269.9752 15.08843304 41234,6917.87,95.437,540.419,539.052,0.0
53845.0,STARLINK-4753,PAYLOAD,2023-06-12 13:14:24,15.08845765,9.97e-05,53.2163,108.4327,90.7668,269.3439,8.5e-05,1.065e-05,0.0,0 STARLINK-4753,1 53845U 22114AD  23163.55167027  .00001065  00000-0  85000-4 0  9992,2 53845  53.2163 108.4327 0000997  90.7668 269.3439 15.08845765 41834,6917.863,95.437,540.417,539.038,0.0
53845.0,STARLINK-4753,PAYLOAD,2023-06-13 05:08:15,15.08838778,9.71e-05,53.2164,105.4594,92.6727,267.4376,0.00020775,3.02e-05,0.0,0 STARLINK-4753,1 53845U 22114AD  23164.21407339  .00003020  00000-0  20775-3 0  9999,2 53845  53.2164 105.4594 0000971  92.6727 267.4376 15.08838778 41393,6917.884,95.438,540.421,539.077,0.0
53845.0,STARLINK-4753,PAYLOAD,2023-06-14 04:59:02,15.0884868,0.0001044,53.2163,100.9978,104.8422,255.2686,5.0126e-05,5.1e-06,0.0,0 STARLINK-4753,1 53845U 22114AD  23165.20767001  .00000510  00000-0  50126-4 0  9999,2 53845  53.2163 100.9978 0001044 104.8422 255.2686 15.08848680 42087,6917.854,95.437,540.441,538.997,0.0
53845.0,STARLINK-4753,PAYLOAD,2023-06-15 01:39:03,15.08841538,0.0001169,53.218,97.1297,98.8212,261.2912,1.0142e-05,-1.26e-06,0.0,0 STARLINK-4753,1 53845U 22114AD  23166.06879509 -.00000126  00000-0  10142-4 0  9999,2 53845  53.2180  97.1297 0001169  98.8212 261.2912 15.08841538 41672,6917.876,95.437,540.549,538.932,0.0
53845.0,STARLINK-4753,PAYLOAD,2023-06-15 04:49:49,15.08848975,0.0001111,53.2172,96.5357,102.5242,257.5875,1.0989e-05,-1.13e-06,0.0,0 STARLINK-4753,1 53845U 22114AD  23166.20126789 -.00000113  00000-0  10989-4 0  9995,2 53845  53.2172  96.5357 0001111 102.5242 257.5875 15.08848975 41696,6917.853,95.437,540.487,538.949,0.0
53845.0,STARLINK-4753,PAYLOAD,2023-06-16 01:29:50,15.08841692,0.0001095,53.2171,92.6703,112.089,248.0218,2.4662e-05,1.05e-06,0.0,0 STARLINK-4753,1 53845U 22114AD  23167.06239089  .00000105  00000-0  24662-4 0  9991,2 53845  53.2171  92.6703 0001095 112.0890 248.0218 15.08841692 41823,6917.875,95.437,540.498,538.983,0.0
53845.0,STARLINK-4753,PAYLOAD,2023-06-16 04:40:36,15.08850256,0.000117,53.2164,92.0774,96.1381,263.9745,7.9921e-05,9.85e-06,0.0,0 STARLINK-4753,1 53845U 22114AD  23167.19486505  .00000985  00000-0  79921-4 0  9996,2 53845  53.2164  92.0774 0001170  96.1381 263.9745 15.08850256 41847,6917.849,95.437,540.523,538.905,0.0
53845.0,STARLINK-4753,PAYLOAD,2023-06-16 12:37:32,15.08846512,0.0001198,53.2167,90.59,90.0383,270.0747,2.552e-05,1.18e-06,0.0,0 STARLINK-4753,1 53845U 22114AD  23167.52606710  .00000118  00000-0  25520-4 0  9999,2 53845  53.2167  90.5900 0001198  90.0383 270.0747 15.08846512 42436,6917.86,95.437,540.554,538.897,0.0
53845.0,STARLINK-4753,PAYLOAD,2023-06-17 01:20:36,15.08851564,0.0001169,53.2166,88.2113,95.5541,264.5584,9.1479e-05,1.169e-05,0.0,0 STARLINK-4753,1 53845U 22114AD  23168.05598077  .00001169  00000-0  91479-4 0  9997,2 53845  53.2166  88.2113 0001169  95.5541 264.5584 15.08851564 42518,6917.845,95.437,540.519,538.901,0.0
53845.0,STARLINK-4753,PAYLOAD,2023-06-17 18:49:52,15.08835534,0.0001184,53.2167,84.9393,106.1181,253.9942,-5.7157e-05,-1.197e-05,0.0,0 STARLINK-4753,1 53845U 22114AD  23168.78463590 -.00001197  00000-0 -57157-4 0  9996,2 53845  53.2167  84.9393 0001184 106.1181 253.9942 15.08835534 42089,6917.894,95.438,540.578,538.94,0.0
53845.0,STARLINK-4753,PAYLOAD,2023-06-18 01:11:25,15.08830759,0.0001137,53.2164,83.7504,96.6076,263.5046,-9.1767e-05,-1.748e-05,0.0,0 STARLINK-4753,1 53845U 22114AD  23169.04960110 -.00001748  00000-0 -91767-4 0  9993,2 53845  53.2164  83.7504 0001137  96.6076 263.5046 15.08830759 42661,6917.909,95.438,540.56,538.987,0.0
53845.0,STARLINK-4753,PAYLOAD,2023-06-18 18:40:39,15.08836972,0.0001143,53.2163,80.4778,99.4715,260.6406,-3.7731e-05,-8.88e-06,0.0,0 STARLINK-4753,1 53845U 22114AD  23169.77823813 -.00000888  00000-0 -37731-4 0  9996,2 53845  53.2163  80.4778 0001143  99.4715 260.6406 15.08836972 42778,6917.89,95.438,540.545,538.964,0.0
53845.0,STARLINK-4753,PAYLOAD,2023-06-19 02:37:34,15.08849322,0.0001267,53.2176,78.995,107.485,252.6281,6.3643e-06,-1.87e-06,0.0,0 STARLINK-4753,1 53845U 22114AD  23170.10942971 -.00000187  00000-0  63643-5 0  9995,2 53845  53.2176  78.9950 0001267 107.4850 252.6281 15.08849322 42284,6917.852,95.437,540.593,538.84,0.0
53845.0,STARLINK-4753,PAYLOAD,2023-06-20 04:03:45,15.08834876,0.0001183,53.2174,74.236,93.8964,266.2164,0.00017151,2.442e-05,0.0,0 STARLINK-4753,1 53845U 22114AD  23171.16927864  .00002442  00000-0  17151-3 0  9992,2 53845  53.2174  74.2360 0001183  93.8964 266.2164 15.08834876 42444,6917.896,95.438,540.579,538.943,0.0
53845.0,STARLINK-4753,PAYLOAD,2023-06-20 10:25:18,15.08837688,0.000112,53.217,73.0464,92.7072,267.4048,0.00011319,1.514e-05,0.0,0 STARLINK-4753,1 53845U 22114AD  23171.43423874  .00001514  00000-0  11319-3 0  9993,2 53845  53.2170  73.0464 0001120  92.7072 267.4048 15.08837688 43024,6917.887,95.438,540.527,538.978,0.0
53845.0,STARLINK-4753,PAYLOAD,2023-06-21 10:16:05,15.08839388,0.00012,53.2179,68.5867,93.3564,266.7565,-4.9848e-06,-3.67e-06,0.0,0 STARLINK-4753,1 53845U 22114AD  23172.42784099 -.00000367  00000-0 -49848-5 0  9999,2 53845  53.2179  68.5867 0001200  93.3564 266.7565 15.08839388 42632,6917.882,95.438,540.577,538.917,0.0
53845.0,STARLINK-4753,PAYLOAD,2023-06-21 13:26:51,15.08836227,0.0001305,53.2168,67.9914,87.2258,272.8883,3.9277e-05,3.37e-06,0.0,0 STARLINK-4753,1 53845U 22114AD  23172.56032294  .00000337  00000-0  39277-4 0  9996,2 53845  53.2168  67.9914 0001305  87.2258 272.8883 15.08836227 43196,6917.892,95.438,540.66,538.854,0.0
53845.0,STARLINK-4753,PAYLOAD,2023-06-21 19:48:24,15.08839683,0.0001205,53.2171,66.8019,89.873,270.24,-7.8558e-06,-4.13e-06,0.0,0 STARLINK-4753,1 53845U 22114AD  23172.82528224 -.00000413  00000-0 -78558-5 0  9991,2 53845  53.2171  66.8019 0001205  89.8730 270.2400 15.08839683 43237,6917.881,95.438,540.58,538.913,0.0
53845.0,STARLINK-4753,PAYLOAD,2023-06-22 16:28:25,15.08838189,0.0001281,53.2171,62.9367,79.023,281.0907,3.8749e-05,3.29e-06,0.0,0 STARLINK-4753,1 53845U 22114AD  23173.68640234  .00000329  00000-0  38749-4 0  9993,2 53845  53.2171  62.9367 0001281  79.0230 281.0907 15.08838189 42826,6917.886,95.438,540.637,538.865,0.0
53845.0,STARLINK-4753,PAYLOAD,2023-06-23 02:00:43,15.08848277,0.0001198,53.217,61.1517,86.7145,273.3984,5.1948e-05,5.39e-06,0.0,0 STARLINK-4753,1 53845U 22114AD  23174.08383527  .00000539  00000-0  51948-4 0  9996,2 53845  53.2170  61.1517 0001198  86.7145 273.3984 15.08848277 42884,6917.855,95.437,540.549,538.891,0.0
53845.0,STARLINK-4753,PAYLOAD,2023-06-23 16:19:12,15.08836418,0.0001323,53.2172,58.476,86.3319,273.7825,9.2213e-05,1.18e-05,0.0,0 STARLINK-4753,1 53845U 22114AD  23174.68000165  .00001180  00000-0  92213-4 0  9999,2 53845  53.2172  58.4760 0001323  86.3319 273.7825 15.08836418 42976,6917.891,95.438,540.672,538.841,0.0
53845.0,STARLINK-4753,PAYLOAD,2023-06-24 01:51:30,15.08846854,0.0001292,53.2172,56.691,91.3609,268.7531,0.00012494,1.701e-05,0.0,0 STARLINK-4753,1 53845U 22114AD  23175.07743387  .00001701  00000-0  12494-3 0  9994,2 53845  53.2172  56.6910 0001292  91.3609 268.7531 15.08846854 43037,6917.859,95.437,540.618,538.831,0.0
53845.0,STARLINK-4753,PAYLOAD,2023-06-24 16:09:59,15.08838299,0.0001303,53.2173,54.0163,91.6606,268.4536,4.3128e-05,3.99e-06,0.0,0 STARLINK-4753,1 53845U 22114AD  23175.67360160  .00000399  00000-0  43128-4 0  9995,2 53845  53.2173  54.0163 0001303  91.6606 268.4536 15.08838299 43129,6917.886,95.438,540.652,538.849,0.0
53845.0,STARLINK-4753,PAYLOAD,2023-06-25 01:42:17,15.08845734,0.0001165,53.2164,52.2301,96.6,263.5125,5.9746e-05,6.63e-06,0.0,0 STARLINK-4753,1 53845U 22114AD  23176.07103600  .00000663  00000-0  59746-4 0  9991,2 53845  53.2164  52.2301 0001165  96.6000 263.5125 15.08845734 43180,6917.863,95.437,540.534,538.922,0.0
53845.0,STARLINK-4753,PAYLOAD,2023-06-25 16:00:46,15.08835139,0.000109,53.2162,49.553,104.4649,255.6464,1.4643e-06,-2.64e-06,0.0,0 STARLINK-4753,1 53845U 22114AD  23176.66720466 -.00000264  00000-0  14643-5 0  9997,2 53845  53.2162  49.5530 0001090 104.4649 255.6464 15.08835139 43271,6917.895,95.438,540.514,539.006,0.0
53845.0,STARLINK-4753,PAYLOAD,2023-06-26 01:33:04,15.08842637,0.0001004,53.217,47.7704,84.7204,275.3903,2.358e-05,8.8e-07,0.0,0 STARLINK-4753,1 53845U 22114AD  23177.06463991  .00000088  00000-0  23580-4 0  9991,2 53845  53.2170  47.7704 0001004  84.7204 275.3903 15.08842637 43330,6917.872,95.437,540.432,539.043,0.0
53845.0,STARLINK-4753,PAYLOAD,2023-06-26 07:54:37,15.0883748,9.61e-05,53.2168,46.5809,82.1251,277.985,-2.0531e-05,-6.14e-06,0.0,0 STARLINK-4753,1 53845U 22114AD  23177.32960527 -.00000614  00000-0 -20531-4 0  9997,2 53845  53.2168  46.5809 0000961  82.1251 277.9850 15.08837480 43378,6917.888,95.438,540.418,539.088,0.0
